{
  "norad_id": 59467,
  "name": "STARLINK-31592",
  "history": [
    {
      "epoch": "2026-03-28T20:58:20.754912Z",
      "apogee_km": 483.83816637371365,
      "perigee_km": 482.15718837775694,
      "latitude_deg": 3.485143182973999e-05,
      "longitude_deg": 145.56821527275414,
      "height_km": 482.7277498408477,
      "semi_major_axis_km": 6861.134677375735,
      "eccentricity": 0.0001225,
      "inclination_deg": 43.0035,
      "raan_deg": 286.4427,
      "arg_perigee_deg": 273.1969,
      "mean_anomaly_deg": 86.8743,
      "mean_motion_rev_day": 15.27597172
    }
  ]
}